start=new Date('2023-06-05T00:00:00.000Z').valueOf();
sats=[{"TLE_LINE1":"1 53175U 22083AV  23155.91933399  .00001283  00000-0  98682-4 0  9999","TIME_SYSTEM":"UTC","APOAPSIS":"540.509","EPHEMERIS_TYPE":"0","MEAN_MOTION_DOT":"0.00001283","RCS_SIZE":"LARGE","BSTAR":"0.00009868200000","ECCENTRICITY":"0.00011100","MEAN_MOTION_DDOT":"0.0000000000000","LAUNCH_DATE":"2022-07-17","EPOCH":"2023-06-04T22:03:50.456736","SEMIMAJOR_AXIS":"6917.876","MEAN_MOTION":"15.08841447","CLASSIFICATION_TYPE":"U","MEAN_ANOMALY":"269.2010","ARG_OF_PERICENTER":"90.9109","MEAN_ELEMENT_THEORY":"SGP4","OBJECT_ID":"2022-083AV","SITE":"AFETR","CENTER_NAME":"EARTH","PERIOD":"95.437","NORAD_CAT_ID":"53175","REV_AT_EPOCH":"4892","FILE":"3925173","OBJECT_NAME":"STARLINK-4292","ELEMENT_SET_NO":"999","PERIAPSIS":"538.973","OBJECT_TYPE":"PAYLOAD","COUNTRY_CODE":"US","INCLINATION":"53.2178","RA_OF_ASC_NODE":"22.6654","REF_FRAME":"TEME","DECAY_DATE":null,"TLE_LINE2":"2 53175  53.2178  22.6654 0001110  90.9109 269.2010 15.08841447 48920","GP_ID":"233218686"},{"EPHEMERIS_TYPE":"0","RCS_SIZE":"LARGE","MEAN_MOTION_DOT":"-0.00000311","APOAPSIS":"540.524","TLE_LINE1":"1 53176U 22083AW  23155.85723438 -.00000311  00000-0 -14729-5 0  9998","TIME_SYSTEM":"UTC","MEAN_ELEMENT_THEORY":"SGP4","OBJECT_ID":"2022-083AW","MEAN_MOTION":"15.08831623","SEMIMAJOR_AXIS":"6917.906","EPOCH":"2023-06-04T20:34:25.050432","ARG_OF_PERICENTER":"91.4829","CLASSIFICATION_TYPE":"U","MEAN_ANOMALY":"268.6288","LAUNCH_DATE":"2022-07-17","MEAN_MOTION_DDOT":"0.0000000000000","BSTAR":"-0.00000147290000","ECCENTRICITY":"0.00010890","NORAD_CAT_ID":"53176","REV_AT_EPOCH":"4926","PERIOD":"95.438","SITE":"AFETR","CENTER_NAME":"EARTH","TLE_LINE2":"2 53176  53.2175 357.8575 0001089  91.4829 268.6288 15.08831623 49266","GP_ID":"233219437","INCLINATION":"53.2175","DECAY_DATE":null,"REF_FRAME":"TEME","RA_OF_ASC_NODE":"357.8575","PERIAPSIS":"539.018","ELEMENT_SET_NO":"999","COUNTRY_CODE":"US","OBJECT_TYPE":"PAYLOAD","FILE":"3925173","OBJECT_NAME":"STARLINK-4294"},{"COUNTRY_CODE":"US","OBJECT_TYPE":"PAYLOAD","PERIAPSIS":"539.112","ELEMENT_SET_NO":"999","OBJECT_NAME":"STARLINK-4298","FILE":"3925173","GP_ID":"233218185","TLE_LINE2":"2 53177  53.2167 348.0996 0000908  82.2989 277.8106 15.08841657 49394","DECAY_DATE":null,"REF_FRAME":"TEME","RA_OF_ASC_NODE":"348.0996","INCLINATION":"53.2167","CENTER_NAME":"EARTH","SITE":"AFETR","REV_AT_EPOCH":"4939","NORAD_CAT_ID":"53177","PERIOD":"95.437","LAUNCH_DATE":"2022-07-17","MEAN_MOTION_DDOT":"0.0000000000000","ECCENTRICITY":"0.00009080","BSTAR":"0.00008077500000","OBJECT_ID":"2022-083AX","MEAN_ELEMENT_THEORY":"SGP4","ARG_OF_PERICENTER":"82.2989","CLASSIFICATION_TYPE":"U","MEAN_ANOMALY":"277.8106","MEAN_MOTION":"15.08841657","SEMIMAJOR_AXIS":"6917.875","EPOCH":"2023-06-04T19:42:45.021888","APOAPSIS":"540.368","TIME_SYSTEM":"UTC","TLE_LINE1":"1 53177U 22083AX  23155.82135442  .00000998  00000-0  80775-4 0  9990","RCS_SIZE":"LARGE","MEAN_MOTION_DOT":"0.00000998","EPHEMERIS_TYPE":"0"},{"RCS_SIZE":"LARGE","MEAN_MOTION_DOT":"0.00002215","EPHEMERIS_TYPE":"0","APOAPSIS":"540.514","TIME_SYSTEM":"UTC","TLE_LINE1":"1 53178U 22083AY  23155.91289592  .00002215  00000-0  15719-3 0  9996","OBJECT_ID":"2022-083AY","MEAN_ELEMENT_THEORY":"SGP4","ARG_OF_PERICENTER":"95.1160","CLASSIFICATION_TYPE":"U","MEAN_ANOMALY":"264.9961","MEAN_MOTION":"15.08844440","EPOCH":"2023-06-04T21:54:34.207488","SEMIMAJOR_AXIS":"6917.867","LAUNCH_DATE":"2022-07-17","MEAN_MOTION_DDOT":"0.0000000000000","ECCENTRICITY":"0.00011310","BSTAR":"0.00015719000000","REV_AT_EPOCH":"4905","NORAD_CAT_ID":"53178","PERIOD":"95.437","CENTER_NAME":"EARTH","SITE":"AFETR","GP_ID":"233218435","TLE_LINE2":"2 53178  53.2160  12.6960 0001131  95.1160 264.9961 15.08844440 49058","DECAY_DATE":null,"REF_FRAME":"TEME","RA_OF_ASC_NODE":"12.6960","INCLINATION":"53.2160","OBJECT_TYPE":"PAYLOAD","COUNTRY_CODE":"US","PERIAPSIS":"538.949","ELEMENT_SET_NO":"999","OBJECT_NAME":"STARLINK-4280","FILE":"3925173"},{"EPOCH":"2023-06-04T18:33:07.748640","SEMIMAJOR_AXIS":"6917.890","MEAN_MOTION":"15.08836780","CLASSIFICATION_TYPE":"U","MEAN_ANOMALY":"261.2470","ARG_OF_PERICENTER":"98.8643","MEAN_ELEMENT_THEORY":"SGP4","OBJECT_ID":"2022-083AZ","BSTAR":"0.00010776000000","ECCENTRICITY":"0.00010640","MEAN_MOTION_DDOT":"0.0000000000000","LAUNCH_DATE":"2022-07-17","EPHEMERIS_TYPE":"0","MEAN_MOTION_DOT":"0.00001427","RCS_SIZE":"LARGE","TLE_LINE1":"1 53179U 22083AZ  23155.77300635  .00001427  00000-0  10776-3 0  9995","TIME_SYSTEM":"UTC","APOAPSIS":"540.491","INCLINATION":"53.2179","REF_FRAME":"TEME","RA_OF_ASC_NODE":"332.9218","DECAY_DATE":null,"TLE_LINE2":"2 53179  53.2179 332.9218 0001064  98.8643 261.2470 15.08836780 49608","GP_ID":"233219187","FILE":"3925173","OBJECT_NAME":"STARLINK-4276","ELEMENT_SET_NO":"999","PERIAPSIS":"539.019","OBJECT_TYPE":"PAYLOAD","COUNTRY_CODE":"US","PERIOD":"95.438","NORAD_CAT_ID":"53179","REV_AT_EPOCH":"4960","SITE":"AFETR","CENTER_NAME":"EARTH"},{"SEMIMAJOR_AXIS":"6917.878","EPOCH":"2023-06-04T19:01:02.280864","MEAN_MOTION":"15.08840731","MEAN_ANOMALY":"279.4531","CLASSIFICATION_TYPE":"U","ARG_OF_PERICENTER":"80.6578","MEAN_ELEMENT_THEORY":"SGP4","OBJECT_ID":"2022-083BA","ECCENTRICITY":"0.00010350","BSTAR":"0.00013022000000","MEAN_MOTION_DDOT":"0.0000000000000","LAUNCH_DATE":"2022-07-17","EPHEMERIS_TYPE":"0","MEAN_MOTION_DOT":"0.00001785","RCS_SIZE":"LARGE","TLE_LINE1":"1 53180U 22083BA  23155.79238751  .00001785  00000-0  13022-3 0  9992","TIME_SYSTEM":"UTC","APOAPSIS":"540.459","INCLINATION":"53.2162","RA_OF_ASC_NODE":"333.0429","REF_FRAME":"TEME","DECAY_DATE":null,"TLE_LINE2":"2 53180  53.2162 333.0429 0001035  80.6578 279.4531 15.08840731 49602","GP_ID":"233218937","FILE":"3925173","OBJECT_NAME":"STARLINK-4258","ELEMENT_SET_NO":"999","PERIAPSIS":"539.027","OBJECT_TYPE":"PAYLOAD","COUNTRY_CODE":"US","PERIOD":"95.438","NORAD_CAT_ID":"53180","REV_AT_EPOCH":"4960","SITE":"AFETR","CENTER_NAME":"EARTH"},{"SITE":"AFETR","CENTER_NAME":"EARTH","NORAD_CAT_ID":"53181","REV_AT_EPOCH":"4960","PERIOD":"95.437","PERIAPSIS":"539.147","ELEMENT_SET_NO":"999","OBJECT_TYPE":"PAYLOAD","COUNTRY_CODE":"US","FILE":"3925173","OBJECT_NAME":"STARLINK-4273","TLE_LINE2":"2 53181  53.2170 333.0372 0000839  78.3500 281.7586 15.08845918 49607","GP_ID":"233217685","INCLINATION":"53.2170","DECAY_DATE":null,"REF_FRAME":"TEME","RA_OF_ASC_NODE":"333.0372","APOAPSIS":"540.308","TIME_SYSTEM":"UTC","TLE_LINE1":"1 53181U 22083BB  23155.79142849  .00002773  00000-0  19220-3 0  9999","EPHEMERIS_TYPE":"0","RCS_SIZE":"LARGE","MEAN_MOTION_DOT":"0.00002773","LAUNCH_DATE":"2022-07-17","MEAN_MOTION_DDOT":"0.0000000000000","ECCENTRICITY":"0.00008390","BSTAR":"0.00019220000000","MEAN_ELEMENT_THEORY":"SGP4","OBJECT_ID":"2022-083BB","MEAN_MOTION":"15.08845918","SEMIMAJOR_AXIS":"6917.862","EPOCH":"2023-06-04T18:59:39.421536","ARG_OF_PERICENTER":"78.3500","CLASSIFICATION_TYPE":"U","MEAN_ANOMALY":"281.7586"},{"TLE_LINE1":"1 53182U 22083BC  23155.81767389  .00000522  00000-0  50894-4 0  9998","TIME_SYSTEM":"UTC","APOAPSIS":"540.454","EPHEMERIS_TYPE":"0","RCS_SIZE":"LARGE","MEAN_MOTION_DOT":"0.00000522","BSTAR":"0.00005089400000","ECCENTRICITY":"0.00010290","LAUNCH_DATE":"2022-07-17","MEAN_MOTION_DDOT":"0.0000000000000","MEAN_MOTION":"15.08840923","EPOCH":"2023-06-04T19:37:27.024096","SEMIMAJOR_AXIS":"6917.878","ARG_OF_PERICENTER":"92.8307","CLASSIFICATION_TYPE":"U","MEAN_ANOMALY":"267.2803","MEAN_ELEMENT_THEORY":"SGP4","OBJECT_ID":"2022-083BC","SITE":"AFETR","CENTER_NAME":"EARTH","PERIOD":"95.437","NORAD_CAT_ID":"53182","REV_AT_EPOCH":"4939","FILE":"3925173","OBJECT_NAME":"STARLINK-4278","PERIAPSIS":"539.031","ELEMENT_SET_NO":"999","OBJECT_TYPE":"PAYLOAD","COUNTRY_CODE":"US","INCLINATION":"53.2170","DECAY_DATE":null,"REF_FRAME":"TEME","RA_OF_ASC_NODE":"348.1139","TLE_LINE2":"2 53182  53.2170 348.1139 0001029  92.8307 267.2803 15.08840923 49392","GP_ID":"233217935"},{"CENTER_NAME":"EARTH","SITE":"AFETR","PERIOD":"95.437","REV_AT_EPOCH":"4953","NORAD_CAT_ID":"53183","OBJECT_NAME":"STARLINK-4268","FILE":"3925173","OBJECT_TYPE":"PAYLOAD","COUNTRY_CODE":"US","ELEMENT_SET_NO":"999","PERIAPSIS":"539.033","RA_OF_ASC_NODE":"337.9989","REF_FRAME":"TEME","DECAY_DATE":null,"INCLINATION":"53.2172","GP_ID":"233218687","TLE_LINE2":"2 53183  53.2172 337.9989 0001018  80.9893 279.1214 15.08842633 49534","TLE_LINE1":"1 53183U 22083BD  23155.82594585  .00001266  00000-0  97589-4 0  9994","TIME_SYSTEM":"UTC","APOAPSIS":"540.442","MEAN_MOTION_DOT":"0.00001266","RCS_SIZE":"LARGE","EPHEMERIS_TYPE":"0","BSTAR":"0.00009758900000","ECCENTRICITY":"0.00010180","MEAN_MOTION_DDOT":"0.0000000000000","LAUNCH_DATE":"2022-07-17","CLASSIFICATION_TYPE":"U","MEAN_ANOMALY":"279.1214","ARG_OF_PERICENTER":"80.9893","SEMIMAJOR_AXIS":"6917.872","EPOCH":"2023-06-04T19:49:21.721440","MEAN_MOTION":"15.08842633","OBJECT_ID":"2022-083BD","MEAN_ELEMENT_THEORY":"SGP4"},{"CLASSIFICATION_TYPE":"U","MEAN_ANOMALY":"271.3584","ARG_OF_PERICENTER":"88.7518","EPOCH":"2023-06-04T21:38:35.770560","SEMIMAJOR_AXIS":"6917.873","MEAN_MOTION":"15.08842255","OBJECT_ID":"2022-083BE","MEAN_ELEMENT_THEORY":"SGP4","ECCENTRICITY":"0.00009570","BSTAR":"0.00010000000000","MEAN_MOTION_DDOT":"0.0000000000000","LAUNCH_DATE":"2022-07-17","MEAN_MOTION_DOT":"0.00001304","RCS_SIZE":"LARGE","EPHEMERIS_TYPE":"0","TLE_LINE1":"1 53184U 22083BE  23155.90180290  .00001304  00000-0  10000-3 0  9993","TIME_SYSTEM":"UTC","APOAPSIS":"540.401","REF_FRAME":"TEME","RA_OF_ASC_NODE":"332.3317","DECAY_DATE":null,"INCLINATION":"53.2172","GP_ID":"233219438","TLE_LINE2":"2 53184  53.2172 332.3317 0000957  88.7518 271.3584 15.08842255 49635","OBJECT_NAME":"STARLINK-4257","FILE":"3925173","COUNTRY_CODE":"US","OBJECT_TYPE":"PAYLOAD","ELEMENT_SET_NO":"999","PERIAPSIS":"539.076","PERIOD":"95.437","REV_AT_EPOCH":"4963","NORAD_CAT_ID":"53184","CENTER_NAME":"EARTH","SITE":"AFETR"}];
